ONEWEB-0400             
1 50480U 21132M   26193.88262676  .00000023  00000+0  25230-4 0  9992
2 50480  87.9192 330.3357 0002041  97.1370 262.9994 13.18684519224996
ONEWEB-0401             
1 50481U 21132N   26193.92816304  .00000101  00000+0  22465-3 0  9994
2 50481  87.9198 330.3234 0001653 115.7144 244.4158 13.18686799225003
ONEWEB-0402             
1 50482U 21132P   26193.89106030  .00000031  00000+0  47059-4 0  9998
2 50482  87.9198 330.3192 0001511 109.0593 251.0703 13.18687275225026
ONEWEB-0403             
1 50483U 21132Q   26193.91636115 -.00000022  00000+0 -87776-4 0  9996
2 50483  87.9200 330.3386 0001812  96.0839 264.0500 13.18686754224982
ONEWEB-0404             
1 50484U 21132R   26193.89092641  .00000371  00000+0  10123-2 0  9999
2 50484  87.8877  15.9487 0001842  80.5031 279.6305 13.11414383219063
ONEWEB-0405             
1 50485U 21132S   26193.92984360 -.00000043  00000+0 -14166-3 0  9992
2 50485  87.9202 330.3211 0002321 102.2818 257.8574 13.18685194225389
ONEWEB-0406             
1 50486U 21132T   26193.99729250 -.00001506  00000+0 -38536-2 0  9996
2 50486  87.9191 330.3235 0001599  84.4313 275.7002 13.18695938225023
ONEWEB-0407             
1 50487U 21132U   26193.91465632  .00000037  00000+0  62097-4 0  9997
2 50487  87.9195 330.3323 0001699 126.4171 233.7118 13.18688499224953
ONEWEB-0409             
1 50488U 21132V   26193.96553271  .00000444  00000+0  12160-2 0  9996
2 50488  87.8889  15.9232 0001960  82.7089 277.4261 13.11415231218964
ONEWEB-0412             
1 50489U 21132W   26193.90286852  .00000028  00000+0  38411-4 0  9996
2 50489  87.9190 330.3431 0001662 103.5056 256.6261 13.18686170225046
ONEWEB-0413             
1 50490U 21132X   26193.90792532  .00000039  00000+0  66524-4 0  9993
2 50490  87.9183 330.3388 0001777 106.6212 253.5115 13.18687643224988
ONEWEB-0414             
1 50491U 21132Y   26193.89275134  .00000033  00000+0  51960-4 0  9998
2 50491  87.9195 330.3261 0001713  98.0773 262.0553 13.18686423225019
ONEWEB-0417             
1 50492U 21132Z   26193.90117880  .00000006  00000+0 -16264-4 0  9993
2 50492  87.9181 330.3424 0001891  90.5306 269.6043 13.18686838224995
ONEWEB-0418             
1 50493U 21132AA  26193.83528022  .00000013  00000+0 -64568-6 0  9990
2 50493  87.9204 330.3551 0001913 102.3666 257.7680 13.18686464225046
ONEWEB-0419             
1 50494U 21132AB  26193.93014962  .00000012  00000+0 -21456-5 0  9992
2 50494  87.9195 330.3376 0002095  93.6256 266.5116 13.18666115224974
ONEWEB-0420             
1 50495U 21132AC  26193.89442153  .00000105  00000+0  23326-3 0  9993
2 50495  87.9180 330.3459 0001891 105.4589 254.6752 13.18687832224967
ONEWEB-0421             
1 50496U 21132AD  26193.88770337 -.00000013  00000+0 -64995-4 0  9999
2 50496  87.9180 330.3458 0001477 103.2142 256.9155 13.18685849225002
ONEWEB-0424             
1 50497U 21132AE  26193.92479150  .00000020  00000+0  18027-4 0  9995
2 50497  87.9200 330.3362 0002217  94.1928 265.9458 13.18686901225032
ONEWEB-0426             
1 50498U 21132AF  26193.88348137  .00000046  00000+0  83413-4 0  9990
2 50498  87.9191 330.3370 0001382  81.2947 278.8342 13.18686278224975
ONEWEB-0427             
1 50499U 21132AG  26193.92310623  .00000016  00000+0  90914-5 0  9997
2 50499  87.9196 330.3175 0001820  93.6076 266.5264 13.18686843225001
ONEWEB-0429             
1 50500U 21132AH  26193.90960397 -.00000001  00000+0 -34883-4 0  9995
2 50500  87.9189 330.3422 0001869 103.4614 256.6727 13.18687627224972
ONEWEB-0430             
1 50501U 21132AJ  26193.89780125 -.00000010  00000+0 -59182-4 0  9992
2 50501  87.9192 330.3440 0002106 110.3720 249.7638 13.18687807225017
ONEWEB-0432             
1 50502U 21132AK  26193.88081698  .00000039  00000+0  66280-4 0  9997
2 50502  87.9191 330.3332 0002297  98.8518 261.2874 13.18686393224966
ONEWEB-0440             
1 50503U 21132AL  26193.91803954  .00000001  00000+0 -30212-4 0  9995
2 50503  87.9197 330.3372 0001645 107.2249 252.9063 13.18686926224968
ONEWEB-0450             
1 50504U 21132AM  26193.91143593 -.00000061  00000+0 -18623-3 0  9990
2 50504  87.9190 330.3406 0001984 107.1702 252.9648 13.18686776224994
ONEWEB-0410             
1 51622U 22012A   26193.95963515 -.00000051  00000+0 -16486-3 0  9992
2 51622  87.9161   0.7330 0001977  57.4729 302.6593 13.17650014217096
ONEWEB-0411             
1 51623U 22012B   26193.97489167 -.00000211  00000+0 -64056-3 0  9995
2 51623  87.8823  31.1287 0002255  96.1829 263.9556 13.10378041212667
ONEWEB-0415             
1 51624U 22012C   26193.58970288 -.00000311  00000+0 -92666-3 0  9991
2 51624  87.8822  31.2038 0002134  87.5344 272.6027 13.10377986212616
ONEWEB-0416             
1 51625U 22012D   26193.98338457  .00000221  00000+0  59616-3 0  9998
2 51625  87.8815  31.1420 0002199  84.3252 275.8126 13.10377613212709
ONEWEB-0422             
1 51626U 22012E   26193.89382000  .00000059  00000+0  11998-3 0  9992
2 51626  87.9148   0.7462 0001778 114.5254 245.6063 13.17650849217193
ONEWEB-0423             
1 51627U 22012F   26193.88707426  .00000059  00000+0  11772-3 0  9995
2 51627  87.9154   0.7509 0001862  89.6306 270.5039 13.17647966217081
