OBJECT_NAME,OBJECT_ID,EPOCH,MEAN_MOTION,ECCENTRICITY,INCLINATION,RA_OF_ASC_NODE,ARG_OF_PERICENTER,MEAN_ANOMALY,EPHEMERIS_TYPE,CLASSIFICATION_TYPE,NORAD_CAT_ID,ELEMENT_SET_NO,REV_AT_EPOCH,BSTAR,MEAN_MOTION_DOT,MEAN_MOTION_DDOT
ONEWEB-0400,2021-132M,2026-07-12T21:10:58.952064,13.18684519,.0002041,87.9192,330.3357,97.1370,262.9994,0,U,50480,999,22499,.2523E-4,.23E-6,0
ONEWEB-0401,2021-132N,2026-07-12T22:16:33.286656,13.18686799,.0001653,87.9198,330.3234,115.7144,244.4158,0,U,50481,999,22500,.22465E-3,.101E-5,0
ONEWEB-0402,2021-132P,2026-07-12T21:23:07.609920,13.18687275,.0001511,87.9198,330.3192,109.0593,251.0703,0,U,50482,999,22502,.47059E-4,.31E-6,0
ONEWEB-0403,2021-132Q,2026-07-12T21:59:33.603360,13.18686754,.0001812,87.9200,330.3386,96.0839,264.0500,0,U,50483,999,22498,-.87776E-4,-.22E-6,0
ONEWEB-0404,2021-132R,2026-07-12T21:22:56.041824,13.11414383,.0001842,87.8877,15.9487,80.5031,279.6305,0,U,50484,999,21906,.10123E-2,.371E-5,0
ONEWEB-0405,2021-132S,2026-07-12T22:18:58.487040,13.18685194,.0002321,87.9202,330.3211,102.2818,257.8574,0,U,50485,999,22538,-.14166E-3,-.43E-6,0
ONEWEB-0406,2021-132T,2026-07-12T23:56:06.072000,13.18695938,.0001599,87.9191,330.3235,84.4313,275.7002,0,U,50486,999,22502,-.38536E-2,-.1506E-4,0
ONEWEB-0407,2021-132U,2026-07-12T21:57:06.306048,13.18688499,.0001699,87.9195,330.3323,126.4171,233.7118,0,U,50487,999,22495,.62097E-4,.37E-6,0
ONEWEB-0409,2021-132V,2026-07-12T23:10:22.026144,13.11415231,.000196,87.8889,15.9232,82.7089,277.4261,0,U,50488,999,21896,.1216E-2,.444E-5,0
ONEWEB-0412,2021-132W,2026-07-12T21:40:07.840128,13.18686170,.0001662,87.9190,330.3431,103.5056,256.6261,0,U,50489,999,22504,.38411E-4,.28E-6,0
ONEWEB-0413,2021-132X,2026-07-12T21:47:24.747648,13.18687643,.0001777,87.9183,330.3388,106.6212,253.5115,0,U,50490,999,22498,.66524E-4,.39E-6,0
ONEWEB-0414,2021-132Y,2026-07-12T21:25:33.715776,13.18686423,.0001713,87.9195,330.3261,98.0773,262.0553,0,U,50491,999,22501,.5196E-4,.33E-6,0
ONEWEB-0417,2021-132Z,2026-07-12T21:37:41.848320,13.18686838,.0001891,87.9181,330.3424,90.5306,269.6043,0,U,50492,999,22499,-.16264E-4,.6E-7,0
ONEWEB-0418,2021-132AA,2026-07-12T20:02:48.211008,13.18686464,.0001913,87.9204,330.3551,102.3666,257.7680,0,U,50493,999,22504,-.64568E-6,.13E-6,0
ONEWEB-0419,2021-132AB,2026-07-12T22:19:24.927168,13.18666115,.0002095,87.9195,330.3376,93.6256,266.5116,0,U,50494,999,22497,-.21456E-5,.12E-6,0
ONEWEB-0420,2021-132AC,2026-07-12T21:27:58.020192,13.18687832,.0001891,87.9180,330.3459,105.4589,254.6752,0,U,50495,999,22496,.23326E-3,.105E-5,0
ONEWEB-0421,2021-132AD,2026-07-12T21:18:17.571168,13.18685849,.0001477,87.9180,330.3458,103.2142,256.9155,0,U,50496,999,22500,-.64995E-4,-.13E-6,0
ONEWEB-0424,2021-132AE,2026-07-12T22:11:41.985600,13.18686901,.0002217,87.9200,330.3362,94.1928,265.9458,0,U,50497,999,22503,.18027E-4,.2E-6,0
ONEWEB-0426,2021-132AF,2026-07-12T21:12:12.790368,13.18686278,.0001382,87.9191,330.3370,81.2947,278.8342,0,U,50498,999,22497,.83413E-4,.46E-6,0
ONEWEB-0427,2021-132AG,2026-07-12T22:09:16.378272,13.18686843,.000182,87.9196,330.3175,93.6076,266.5264,0,U,50499,999,22500,.90914E-5,.16E-6,0
ONEWEB-0429,2021-132AH,2026-07-12T21:49:49.783008,13.18687627,.0001869,87.9189,330.3422,103.4614,256.6727,0,U,50500,999,22497,-.34883E-4,-.1E-7,0
ONEWEB-0430,2021-132AJ,2026-07-12T21:32:50.028000,13.18687807,.0002106,87.9192,330.3440,110.3720,249.7638,0,U,50501,999,22501,-.59182E-4,-.1E-6,0
ONEWEB-0432,2021-132AK,2026-07-12T21:08:22.587072,13.18686393,.0002297,87.9191,330.3332,98.8518,261.2874,0,U,50502,999,22496,.6628E-4,.39E-6,0
ONEWEB-0440,2021-132AL,2026-07-12T22:01:58.616256,13.18686926,.0001645,87.9197,330.3372,107.2249,252.9063,0,U,50503,999,22496,-.30212E-4,.1E-7,0
ONEWEB-0450,2021-132AM,2026-07-12T21:52:28.064352,13.18686776,.0001984,87.9190,330.3406,107.1702,252.9648,0,U,50504,999,22499,-.18623E-3,-.61E-6,0
ONEWEB-0410,2022-012A,2026-07-12T23:01:52.476960,13.17650014,.0001977,87.9161,0.7330,57.4729,302.6593,0,U,51622,999,21709,-.16486E-3,-.51E-6,0
ONEWEB-0411,2022-012B,2026-07-12T23:23:50.640288,13.10378041,.0002255,87.8823,31.1287,96.1829,263.9556,0,U,51623,999,21266,-.64056E-3,-.211E-5,0
ONEWEB-0415,2022-012C,2026-07-12T14:09:10.328832,13.10377986,.0002134,87.8822,31.2038,87.5344,272.6027,0,U,51624,999,21261,-.92666E-3,-.311E-5,0
ONEWEB-0416,2022-012D,2026-07-12T23:36:04.426848,13.10377613,.0002199,87.8815,31.1420,84.3252,275.8126,0,U,51625,999,21270,.59616E-3,.221E-5,0
ONEWEB-0422,2022-012E,2026-07-12T21:27:06.048000,13.17650849,.0001778,87.9148,0.7462,114.5254,245.6063,0,U,51626,999,21719,.11998E-3,.59E-6,0
ONEWEB-0423,2022-012F,2026-07-12T21:17:23.216064,13.17647966,.0001862,87.9154,0.7509,89.6306,270.5039,0,U,51627,999,21708,.11772E-3,.59E-6,0
